COMMENT,ORIGINATOR,NORAD_CAT_ID,OBJECT_NAME,OBJECT_TYPE,CLASSIFICATION_TYPE,INTLDES,EPOCH,EPOCH_MICROSECONDS,MEAN_MOTION,ECCENTRICITY,INCLINATION,RA_OF_ASC_NODE,ARG_OF_PERICENTER,MEAN_ANOMALY,EPHEMERIS_TYPE,ELEMENT_SET_NO,REV_AT_EPOCH,BSTAR,MEAN_MOTION_DOT,MEAN_MOTION_DDOT,FILE,TLE_LINE0,TLE_LINE1,TLE_LINE2,OBJECT_ID,OBJECT_NUMBER,SEMIMAJOR_AXIS,PERIOD,APOGEE,PERIGEE,DECAYED
GENERATED VIA SPACETRACK.ORG API,18 SPCS,38778,ASTRA 2F,PAYLOAD,U,12051A,2023-12-15 12:49:42,687840,1.00272104,0.0003893,0.074,254.1153,344.0891,66.3822,0,999,3195,0,1.67e-06,0,4137031,0 ASTRA 2F,1 38778U 12051A   23349.53452185  .00000167  00000-0  00000-0 0  9990,2 38778   0.0740 254.1153 0003893 344.0891  66.3822  1.00272104 31951,2012-051A,38778,42164.643,1436.092,35802.922,35770.093,0
GENERATED VIA SPACETRACK.ORG API,18 SPCS,38778,ASTRA 2F,PAYLOAD,U,12051A,2023-12-15 19:09:26,964864,1.00272208,0.0003901,0.0732,253.9637,344.4801,161.3377,0,999,3195,0,1.66e-06,0,4137270,0 ASTRA 2F,1 38778U 12051A   23349.79822876  .00000166  00000-0  00000-0 0  9995,2 38778   0.0732 253.9637 0003901 344.4801 161.3377  1.00272208 31957,2012-051A,38778,42164.613,1436.091,35802.927,35770.03,0
GENERATED VIA SPACETRACK.ORG API,18 SPCS,38778,ASTRA 2F,PAYLOAD,U,12051A,2023-12-16 02:01:54,173856,1.00268907,0.000406,0.0725,253.5195,347.3445,262.3067,0,999,4112,0,1.65e-06,0,4137431,0 ASTRA 2F,1 38778U 12051A   23350.08465479  .00000165  00000-0  00000+0 0  9999,2 38778   0.0725 253.5195 0004060 347.3445 262.3067  1.00268907 41126,2012-051A,38778,42165.539,1436.138,35804.523,35770.285,0
GENERATED VIA SPACETRACK.ORG API,18 SPCS,38778,ASTRA 2F,PAYLOAD,U,12051A,2023-12-16 07:11:25,530720,1.00269716,0.0004103,0.0719,253.405,347.9359,339.421,0,999,3196,0,1.64e-06,0,4137834,0 ASTRA 2F,1 38778U 12051A   23350.29960105  .00000164  00000-0  00000-0 0  9998,2 38778   0.0719 253.4050 0004103 347.9359 339.4210  1.00269716 31962,2012-051A,38778,42165.312,1436.127,35804.477,35769.877,0
GENERATED VIA SPACETRACK.ORG API,18 SPCS,38778,ASTRA 2F,PAYLOAD,U,12051A,2023-12-16 21:38:42,768960,1.00269555,0.0004084,0.0704,252.5976,349.2788,196.2959,0,999,3196,0,1.62e-06,0,4138106,0 ASTRA 2F,1 38778U 12051A   23350.90188390  .00000162  00000-0  00000-0 0  9992,2 38778   0.0704 252.5976 0004084 349.2788 196.2959  1.00269555 31962,2012-051A,38778,42165.357,1436.129,35804.442,35770.002,0
GENERATED VIA SPACETRACK.ORG API,18 SPCS,38778,ASTRA 2F,PAYLOAD,U,12051A,2023-12-17 07:15:21,909024,1.00269768,0.00041,0.0694,252.2278,349.9946,340.505,0,999,4113,0,1.61e-06,0,4138533,0 ASTRA 2F,1 38778U 12051A   23351.30233691  .00000161  00000-0  00000+0 0  9990,2 38778   0.0694 252.2278 0004100 349.9946 340.5050  1.00269768 41136,2012-051A,38778,42165.297,1436.126,35804.45,35769.875,0
GENERATED VIA SPACETRACK.ORG API,18 SPCS,38778,ASTRA 2F,PAYLOAD,U,12051A,2023-12-17 12:41:42,690048,1.00269858,0.00041,0.0689,251.7753,350.6376,62.1228,0,999,3197,0,1.6e-06,0,4138654,0 ASTRA 2F,1 38778U 12051A   23351.52896632  .00000160  00000-0  00000-0 0  9994,2 38778   0.0689 251.7753 0004100 350.6376  62.1228  1.00269858 31973,2012-051A,38778,42165.272,1436.125,35804.425,35769.849,0
GENERATED VIA SPACETRACK.ORG API,18 SPCS,38778,ASTRA 2F,PAYLOAD,U,12051A,2023-12-17 20:49:42,735072,1.00270035,0.0004109,0.068,251.4658,351.4905,183.9119,0,999,3197,0,1.6e-06,0,4138912,0 ASTRA 2F,1 38778U 12051A   23351.86785573  .00000160  00000-0  00000-0 0  9992,2 38778   0.0680 251.4658 0004109 351.4905 183.9119  1.00270035 31971,2012-051A,38778,42165.223,1436.122,35804.413,35769.762,0
GENERATED VIA SPACETRACK.ORG API,18 SPCS,38778,ASTRA 2F,PAYLOAD,U,12051A,2023-12-18 07:19:24,357792,1.00270231,0.0004125,0.067,250.9894,352.4798,341.251,0,999,4114,0,1.59e-06,0,4139340,0 ASTRA 2F,1 38778U 12051A   23352.30514303  .00000159  00000-0  00000+0 0  9990,2 38778   0.0670 250.9894 0004125 352.4798 341.2510  1.00270231 41147,2012-051A,38778,42165.168,1436.119,35804.426,35769.639,0
GENERATED VIA SPACETRACK.ORG API,18 SPCS,38778,ASTRA 2F,PAYLOAD,U,12051A,2023-12-18 12:38:42,495936,1.00270337,0.0004129,0.0665,250.524,353.1245,61.1146,0,999,3198,0,1.59e-06,0,4139416,0 ASTRA 2F,1 38778U 12051A   23352.52688074  .00000159  00000-0  00000-0 0  9992,2 38778   0.0665 250.5240 0004129 353.1245  61.1146  1.00270337 31982,2012-051A,38778,42165.138,1436.118,35804.413,35769.593,0
GENERATED VIA SPACETRACK.ORG API,18 SPCS,38778,ASTRA 2F,PAYLOAD,U,12051A,2023-12-18 20:49:42,531168,1.00270524,0.0004139,0.0656,250.2084,353.9141,183.7257,0,999,3198,0,1.59e-06,0,4139685,0 ASTRA 2F,1 38778U 12051A   23352.86785337  .00000159  00000-0  00000-0 0  9999,2 38778   0.0656 250.2084 0004139 353.9141 183.7257  1.00270524 31981,2012-051A,38778,42165.085,1436.115,35804.403,35769.498,0
GENERATED VIA SPACETRACK.ORG API,18 SPCS,38778,ASTRA 2F,PAYLOAD,U,12051A,2023-12-19 07:23:22,578144,1.00270736,0.0004151,0.0646,249.7131,354.9948,341.9892,0,999,4115,0,1.59e-06,0,4140163,0 ASTRA 2F,1 38778U 12051A   23353.30790021  .00000159  00000-0  00000+0 0  9994,2 38778   0.0646 249.7131 0004151 354.9948 341.9892  1.00270736 41154,2012-051A,38778,42165.026,1436.112,35804.394,35769.388,0
GENERATED VIA SPACETRACK.ORG API,18 SPCS,38778,ASTRA 2F,PAYLOAD,U,12051A,2023-12-19 13:36:42,837408,1.00270876,0.0004163,0.0642,249.2032,355.6923,75.3906,0,999,3199,0,1.59e-06,0,4140211,0 ASTRA 2F,1 38778U 12051A   23353.56716247  .00000159  00000-0  00000-0 0  9991,2 38778   0.0642 249.2032 0004163 355.6923  75.3906  1.00270876 31999,2012-051A,38778,42164.987,1436.11,35804.405,35769.299,0
GENERATED VIA SPACETRACK.ORG API,18 SPCS,38778,ASTRA 2F,PAYLOAD,U,12051A,2023-12-20 10:53:25,734048,1.0027127,0.0004238,0.0894,257.1521,345.0597,38.128,0,999,4116,0,1.59e-06,0,4140937,0 ASTRA 2F,1 38778U 12051A   23354.45377007  .00000159  00000-0  00000+0 0  9996,2 38778   0.0894 257.1521 0004238 345.0597  38.1280  1.00271270 41163,2012-051A,38778,42164.876,1436.104,35804.611,35768.872,0
GENERATED VIA SPACETRACK.ORG API,18 SPCS,38778,ASTRA 2F,PAYLOAD,U,12051A,2023-12-20 12:38:42,931392,1.0027008,0.0004292,0.0893,257.0313,344.3304,65.3704,0,999,3200,0,1.59e-06,0,4141011,0 ASTRA 2F,1 38778U 12051A   23354.52688578  .00000159  00000-0  00000-0 0  9993,2 38778   0.0893 257.0313 0004292 344.3304  65.3704  1.00270080 32002,2012-051A,38778,42165.21,1436.121,35805.172,35768.978,0
GENERATED VIA SPACETRACK.ORG API,18 SPCS,38778,ASTRA 2F,PAYLOAD,U,12051A,2023-12-20 17:46:43,665024,1.00270219,0.0004297,0.0888,256.9903,344.6432,142.3116,0,999,3200,0,1.59e-06,0,4141291,0 ASTRA 2F,1 38778U 12051A   23354.74078316  .00000159  00000-0  00000-0 0  9990,2 38778   0.0888 256.9903 0004297 344.6432 142.3116  1.00270219 32006,2012-051A,38778,42165.171,1436.119,35805.154,35768.918,0
GENERATED VIA SPACETRACK.ORG API,18 SPCS,38778,ASTRA 2F,PAYLOAD,U,12051A,2023-12-21 10:57:59,990112,1.00270644,0.000432,0.0871,256.4773,345.937,40.0515,0,999,4117,0,1.6e-06,0,4141752,0 ASTRA 2F,1 38778U 12051A   23355.45694433  .00000160  00000-0  00000+0 0  9994,2 38778   0.0871 256.4773 0004320 345.9370  40.0515  1.00270644 41177,2012-051A,38778,42165.052,1436.113,35805.132,35768.702,0
GENERATED VIA SPACETRACK.ORG API,18 SPCS,38778,ASTRA 2F,PAYLOAD,U,12051A,2023-12-21 13:29:42,614592,1.00270712,0.0004324,0.087,256.3955,346.1992,77.9022,0,999,3201,0,1.6e-06,0,4141803,0 ASTRA 2F,1 38778U 12051A   23355.56229878  .00000160  00000-0  00000-0 0  9994,2 38778   0.0870 256.3955 0004324 346.1992  77.9022  1.00270712 32015,2012-051A,38778,42165.033,1436.112,35805.13,35768.666,0
GENERATED VIA SPACETRACK.ORG API,18 SPCS,38778,ASTRA 2F,PAYLOAD,U,12051A,2023-12-21 21:17:00,489408,1.00270903,0.0004322,0.0862,256.2329,346.8428,194.5647,0,999,3201,0,1.61e-06,0,4141951,0 ASTRA 2F,1 38778U 12051A   23355.88681122  .00000161  00000-0  00000-0 0  9994,2 38778   0.0862 256.2329 0004322 346.8428 194.5647  1.00270903 32010,2012-051A,38778,42164.979,1436.11,35805.068,35768.621,0
GENERATED VIA SPACETRACK.ORG API,18 SPCS,38778,ASTRA 2F,PAYLOAD,U,12051A,2023-12-22 11:01:58,615680,1.00271236,0.000433,0.0849,255.7623,348.1437,40.5399,0,999,4118,0,1.61e-06,0,4142406,0 ASTRA 2F,1 38778U 12051A   23356.45970620  .00000161  00000-0  00000+0 0  9991,2 38778   0.0849 255.7623 0004330 348.1437  40.5399  1.00271236 41182,2012-051A,38778,42164.886,1436.105,35805.008,35768.493,0
GENERATED VIA SPACETRACK.ORG API,18 SPCS,38778,ASTRA 2F,PAYLOAD,U,12051A,2023-12-22 12:45:14,82336,1.0027128,0.0004334,0.0848,255.6875,348.3043,66.3391,0,999,3202,0,1.61e-06,0,4142519,0 ASTRA 2F,1 38778U 12051A   23356.53141299  .00000161  00000-0  00000-0 0  9993,2 38778   0.0848 255.6875 0004334 348.3043  66.3391  1.00271280 32028,2012-051A,38778,42164.874,1436.104,35805.013,35768.464,0
GENERATED VIA SPACETRACK.ORG API,18 SPCS,38778,ASTRA 2F,PAYLOAD,U,12051A,2023-12-22 20:01:42,546144,1.00271503,0.0004378,0.0841,255.5643,347.828,176.3559,0,999,3202,0,1.61e-06,0,4142803,0 ASTRA 2F,1 38778U 12051A   23356.83452021  .00000161  00000-0  00000-0 0  9994,2 38778   0.0841 255.5643 0004378 347.8280 176.3559  1.00271503 32024,2012-051A,38778,42164.811,1436.101,35805.136,35768.216,0
GENERATED VIA SPACETRACK.ORG API,18 SPCS,38778,ASTRA 2F,PAYLOAD,U,12051A,2023-12-23 11:06:03,44736,1.00268562,0.0004429,0.0828,254.921,352.5191,39.0014,0,999,4119,0,1.61e-06,0,4143268,0 ASTRA 2F,1 38778U 12051A   23357.46253524  .00000161  00000-0  00000+0 0  9990,2 38778   0.0828 254.9210 0004429 352.5191  39.0014  1.00268562 41193,2012-051A,38778,42165.636,1436.143,35806.176,35768.825,0
GENERATED VIA SPACETRACK.ORG API,18 SPCS,38778,ASTRA 2F,PAYLOAD,U,12051A,2023-12-23 12:49:18,509664,1.00268678,0.0004438,0.0828,254.8327,352.7233,64.77,0,999,3203,0,1.61e-06,0,4143387,0 ASTRA 2F,1 38778U 12051A   23357.53424201  .00000161  00000-0  00000-0 0  9991,2 38778   0.0828 254.8327 0004438 352.7233  64.7700  1.00268678 32038,2012-051A,38778,42165.603,1436.141,35806.181,35768.755,0
